{
    "links": {
        "self": "http://www.neowsapp.com/rest/v1/neo/3385159?api_key=iIulBulltgU6a56xZRHN4H3l9WmuAYTsLGpBGhQ2"
    },
    "id": "3385159",
    "neo_reference_id": "3385159",
    "name": "(2007 RL133)",
    "designation": "2007 RL133",
    "nasa_jpl_url": "http://ssd.jpl.nasa.gov/sbdb.cgi?sstr=3385159",
    "absolute_magnitude_h": 20.3,
    "estimated_diameter": {
        "kilometers": {
            "estimated_diameter_min": 0.2315021222,
            "estimated_diameter_max": 0.5176544822
        },
        "meters": {
            "estimated_diameter_min": 231.5021222103,
            "estimated_diameter_max": 517.6544821978
        },
        "miles": {
            "estimated_diameter_min": 0.1438487052,
            "estimated_diameter_max": 0.3216554833
        },
        "feet": {
            "estimated_diameter_min": 759.5214226325,
            "estimated_diameter_max": 1698.3415313737
        }
    },
    "is_potentially_hazardous_asteroid": false,
    "close_approach_data": [
        {
            "close_approach_date": "2000-01-16",
            "close_approach_date_full": "2000-Jan-16 18:33",
            "epoch_date_close_approach": 948047580000,
            "relative_velocity": {
                "kilometers_per_second": "11.3412449979",
                "kilometers_per_hour": "40828.4819925062",
                "miles_per_hour": "25369.2309358437"
            },
            "miss_distance": {
                "astronomical": "0.0819525849",
                "lunar": "31.8795555261",
                "kilometers": "12259932.142034163",
                "miles": "7617968.5831629294"
            },
            "orbiting_body": "Mars"
        },
        {
            "close_approach_date": "2007-06-20",
            "close_approach_date_full": "2007-Jun-20 13:51",
            "epoch_date_close_approach": 1182347460000,
            "relative_velocity": {
                "kilometers_per_second": "10.3515594938",
                "kilometers_per_hour": "37265.6141778085",
                "miles_per_hour": "23155.4034317611"
            },
            "miss_distance": {
                "astronomical": "0.2697350598",
                "lunar": "104.9269382622",
                "kilometers": "40351790.410402626",
                "miles": "25073439.8901671988"
            },
            "orbiting_body": "Earth"
        }
    ],
    "orbital_data": {
        "orbit_id": "13",
        "orbit_determination_date": "2017-04-06 09:05:59",
        "first_observation_date": "2007-09-14",
        "last_observation_date": "2007-10-29",
        "data_arc_in_days": 45,
        "observations_used": 46,
        "orbit_uncertainty": "7",
        "minimum_orbit_intersection": ".238635",
        "jupiter_tisserand_invariant": "3.237",
        "epoch_osculation": "2459000.5",
        "eccentricity": ".5547189941498596",
        "semi_major_axis": "2.452878699764041",
        "inclination": "12.54982184299882",
        "ascending_node_longitude": "28.01422594776814",
        "orbital_period": "1403.177249932619",
        "perihelion_distance": "1.092220294659317",
        "perihelion_argument": "272.2054602101565",
        "aphelion_distance": "3.813537104868765",
        "perihelion_time": "2458508.531233353190",
        "mean_anomaly": "126.2198029517342",
        "mean_motion": ".2565606020317727",
        "equinox": "J2000",
        "orbit_class": {
            "orbit_class_type": "AMO",
            "orbit_class_description": "Near-Earth asteroid orbits similar to that of 1221 Amor",
            "orbit_class_range": "1.017 AU < q (perihelion) < 1.3 AU"
        }
    },
    "is_sentry_object": false
}